GLOBALSTAR M024         
1 25883U 99043A   25275.99469892  .00000016  00000+0  28602-2 0  9994
2 25883  51.9990 137.3705 0000583 314.5393 190.0156 11.10168988126836
GLOBALSTAR M027         
1 25884U 99043B   25276.20584448 -.00000042  00000+0  82301-3 0  9992
2 25884  52.0197 217.9360 0021054 164.5306 195.6135 11.04372911153174
GLOBALSTAR M054         
1 25885U 99043C   25276.31714417 -.00000085  00000+0 -34312-3 0  9993
2 25885  52.0163 326.8448 0005162   3.1181  77.0542 11.39220708131373
GLOBALSTAR M053         
1 25886U 99043D   25276.29211330 -.00000037  00000+0  91852-3 0  9995
2 25886  51.9976 279.9972 0003328 269.0799 103.5441 11.27667462131646
GLOBALSTAR M058         
1 25907U 99049A   25276.20512994 -.00000095  00000+0 -13951-3 0  9995
2 25907  51.9927 180.7379 0002527 107.0042 253.1070 11.93202892554439
GLOBALSTAR M050         
1 25908U 99049B   25276.18213046 -.00000110  00000+0 -24184-3 0  9997
2 25908  51.9981 180.4071 0008306 247.8408 266.8310 12.07458648161234
GLOBALSTAR M033         
1 25909U 99049C   25276.30645910 -.00000140  00000+0 -46827-3 0  9992
2 25909  51.9930  44.4253 0014639 126.0992 234.1213 12.20297268548943
GLOBALSTAR M055         
1 25910U 99049D   25276.30496401 -.00000060  00000+0  29344-3 0  9998
2 25910  52.0032  49.9136 0006813   3.1278 356.9616 12.29433074181586
